STARLINK-4546           
1 53422U 22097AL  22242.25001157  .00062239  00000+0  44521-3 0  9999
2 53422  53.2192 148.7804 0000964  66.2204 201.0461 15.73167579  3582
STARLINK-4539           
1 53423U 22097AM  22241.91667824  .00012612  00000+0  94293-4 0  9993
2 53423  53.2202 150.4351 0001391  80.7833  95.0463 15.73163062  1300
STARLINK-4532           
1 53424U 22097AN  22242.16667824  .00074001  00000+0  52751-3 0  9994
2 53424  53.2196 149.1910 0001162  81.1081  75.1012 15.73179341  3572
STARLINK-4531           
1 53425U 22097AP  22242.25001157  .00037900  00000+0  27354-3 0  9994
2 53425  53.2194 148.7815 0001120  77.7560 188.8997 15.73174341  3587
STARLINK-4558           
1 53426U 22097AQ  22242.25001157  .00067594  00000+0  48231-3 0  9994
2 53426  53.2192 148.7774 0000792  68.9819 200.0572 15.73193081  3581
STARLINK-4541           
1 53427U 22097AR  22242.25001157  .00035690  00000+0  25784-3 0  9995
2 53427  53.2200 148.7786 0000966  73.8987 193.9521 15.73181134  3589
STARLINK-4540           
1 53428U 22097AS  22241.91667824  .00013412  00000+0  99757-4 0  9997
2 53428  53.2195 150.4209 0000924  81.8026 100.0979 15.73215961  1300
STARLINK-4543           
1 53429U 22097AT  22241.91667824 -.00056821  00000+0 -40265-3 0  9990
2 53429  53.2196 150.4219 0000958  96.7056  84.5984 15.73231127  1302
STARLINK-4538           
1 53430U 22097AU  22241.91667824 -.00085487  00000+0 -60939-3 0  9992
2 53430  53.2204 150.4212 0000841  82.5373  99.9300 15.73258379  1303
STARLINK-4548           
1 53431U 22097AV  22241.91667824 -.00051561  00000+0 -36481-3 0  9994
2 53431  53.2198 150.4242 0001398  75.9624 104.7207 15.73225064  1308
STARLINK-4557           
1 53432U 22097AW  22241.91667824  .00011290  00000+0  84690-4 0  9994
2 53432  53.2202 150.4187 0000951  79.1961 105.0801 15.73216974  1301
STARLINK-4549           
1 53433U 22097AX  22242.25001157  .00059262  00000+0  42439-3 0  9999
2 53433  53.2191 148.7706 0000807  60.0005 212.0285 15.73161572  3584
