CCSDS_OMM_VERS = 2.0
CREATION_DATE  = 
ORIGINATOR     = 

OBJECT_NAME    = STARLINK-4546
OBJECT_ID      = 2022-097AL
CENTER_NAME    = EARTH
REF_FRAME      = TEME
TIME_SYSTEM    = UTC
MEAN_ELEMENT_THEORY = SGP/SGP4

EPOCH          = 2022-08-30T06:00:00.999648
MEAN_MOTION    = 15.73167579
ECCENTRICITY   = .0000964
INCLINATION    = 53.2192
RA_OF_ASC_NODE = 148.7804
ARG_OF_PERICENTER = 66.2204
MEAN_ANOMALY   = 201.0461

EPHEMERIS_TYPE = 0
CLASSIFICATION_TYPE = U
NORAD_CAT_ID   = 53422
ELEMENT_SET_NO = 999
REV_AT_EPOCH   = 358
BSTAR          = .44521E-3
MEAN_MOTION_DOT = .62239E-3
MEAN_MOTION_DDOT = 0

CCSDS_OMM_VERS = 2.0
CREATION_DATE  = 
ORIGINATOR     = 

OBJECT_NAME    = STARLINK-4539
OBJECT_ID      = 2022-097AM
CENTER_NAME    = EARTH
REF_FRAME      = TEME
TIME_SYSTEM    = UTC
MEAN_ELEMENT_THEORY = SGP/SGP4

EPOCH          = 2022-08-29T22:00:00.999936
MEAN_MOTION    = 15.73163062
ECCENTRICITY   = .0001391
INCLINATION    = 53.2202
RA_OF_ASC_NODE = 150.4351
ARG_OF_PERICENTER = 80.7833
MEAN_ANOMALY   = 95.0463

EPHEMERIS_TYPE = 0
CLASSIFICATION_TYPE = U
NORAD_CAT_ID   = 53423
ELEMENT_SET_NO = 999
REV_AT_EPOCH   = 130
BSTAR          = .94293E-4
MEAN_MOTION_DOT = .12612E-3
MEAN_MOTION_DDOT = 0

CCSDS_OMM_VERS = 2.0
CREATION_DATE  = 
ORIGINATOR     = 

OBJECT_NAME    = STARLINK-4532
OBJECT_ID      = 2022-097AN
CENTER_NAME    = EARTH
REF_FRAME      = TEME
TIME_SYSTEM    = UTC
MEAN_ELEMENT_THEORY = SGP/SGP4

EPOCH          = 2022-08-30T04:00:00.999936
MEAN_MOTION    = 15.73179341
ECCENTRICITY   = .0001162
INCLINATION    = 53.2196
RA_OF_ASC_NODE = 149.1910
ARG_OF_PERICENTER = 81.1081
MEAN_ANOMALY   = 75.1012

EPHEMERIS_TYPE = 0
CLASSIFICATION_TYPE = U
NORAD_CAT_ID   = 53424
ELEMENT_SET_NO = 999
REV_AT_EPOCH   = 357
BSTAR          = .52751E-3
MEAN_MOTION_DOT = .74001E-3
MEAN_MOTION_DDOT = 0

CCSDS_OMM_VERS = 2.0
CREATION_DATE  = 
ORIGINATOR     = 

OBJECT_NAME    = STARLINK-4531
OBJECT_ID      = 2022-097AP
CENTER_NAME    = EARTH
REF_FRAME      = TEME
TIME_SYSTEM    = UTC
MEAN_ELEMENT_THEORY = SGP/SGP4

EPOCH          = 2022-08-30T06:00:00.999648
MEAN_MOTION    = 15.73174341
ECCENTRICITY   = .000112
INCLINATION    = 53.2194
RA_OF_ASC_NODE = 148.7815
ARG_OF_PERICENTER = 77.7560
MEAN_ANOMALY   = 188.8997

EPHEMERIS_TYPE = 0
CLASSIFICATION_TYPE = U
NORAD_CAT_ID   = 53425
ELEMENT_SET_NO = 999
REV_AT_EPOCH   = 358
BSTAR          = .27354E-3
MEAN_MOTION_DOT = .379E-3
MEAN_MOTION_DDOT = 0

CCSDS_OMM_VERS = 2.0
CREATION_DATE  = 
ORIGINATOR     = 

OBJECT_NAME    = STARLINK-4558
OBJECT_ID      = 2022-097AQ
CENTER_NAME    = EARTH
REF_FRAME      = TEME
TIME_SYSTEM    = UTC
MEAN_ELEMENT_THEORY = SGP/SGP4

EPOCH          = 2022-08-30T06:00:00.999648
MEAN_MOTION    = 15.73193081
ECCENTRICITY   = .0000792
INCLINATION    = 53.2192
RA_OF_ASC_NODE = 148.7774
ARG_OF_PERICENTER = 68.9819
MEAN_ANOMALY   = 200.0572

EPHEMERIS_TYPE = 0
CLASSIFICATION_TYPE = U
NORAD_CAT_ID   = 53426
ELEMENT_SET_NO = 999
REV_AT_EPOCH   = 358
BSTAR          = .48231E-3
MEAN_MOTION_DOT = .67594E-3
MEAN_MOTION_DDOT = 0

CCSDS_OMM_VERS = 2.0
CREATION_DATE  = 
ORIGINATOR     = 

OBJECT_NAME    = STARLINK-4541
OBJECT_ID      = 2022-097AR
CENTER_NAME    = EARTH
REF_FRAME      = TEME
TIME_SYSTEM    = UTC
MEAN_ELEMENT_THEORY = SGP/SGP4

EPOCH          = 2022-08-30T06:00:00.999648
MEAN_MOTION    = 15.73181134
ECCENTRICITY   = .0000966
INCLINATION    = 53.2200
RA_OF_ASC_NODE = 148.7786
ARG_OF_PERICENTER = 73.8987
MEAN_ANOMALY   = 193.9521

EPHEMERIS_TYPE = 0
CLASSIFICATION_TYPE = U
NORAD_CAT_ID   = 53427
ELEMENT_SET_NO = 999
REV_AT_EPOCH   = 358
BSTAR          = .25784E-3
MEAN_MOTION_DOT = .3569E-3
MEAN_MOTION_DDOT = 0

CCSDS_OMM_VERS = 2.0
CREATION_DATE  = 
ORIGINATOR     = 

OBJECT_NAME    = STARLINK-4540
OBJECT_ID      = 2022-097AS
CENTER_NAME    = EARTH
REF_FRAME      = TEME
TIME_SYSTEM    = UTC
MEAN_ELEMENT_THEORY = SGP/SGP4

EPOCH          = 2022-08-29T22:00:00.999936
MEAN_MOTION    = 15.73215961
ECCENTRICITY   = .0000924
INCLINATION    = 53.2195
RA_OF_ASC_NODE = 150.4209
ARG_OF_PERICENTER = 81.8026
MEAN_ANOMALY   = 100.0979

EPHEMERIS_TYPE = 0
CLASSIFICATION_TYPE = U
NORAD_CAT_ID   = 53428
ELEMENT_SET_NO = 999
REV_AT_EPOCH   = 130
BSTAR          = .99757E-4
MEAN_MOTION_DOT = .13412E-3
MEAN_MOTION_DDOT = 0

CCSDS_OMM_VERS = 2.0
CREATION_DATE  = 
ORIGINATOR     = 

OBJECT_NAME    = STARLINK-4543
OBJECT_ID      = 2022-097AT
CENTER_NAME    = EARTH
REF_FRAME      = TEME
TIME_SYSTEM    = UTC
MEAN_ELEMENT_THEORY = SGP/SGP4

EPOCH          = 2022-08-29T22:00:00.999936
MEAN_MOTION    = 15.73231127
ECCENTRICITY   = .0000958
INCLINATION    = 53.2196
RA_OF_ASC_NODE = 150.4219
ARG_OF_PERICENTER = 96.7056
MEAN_ANOMALY   = 84.5984

EPHEMERIS_TYPE = 0
CLASSIFICATION_TYPE = U
NORAD_CAT_ID   = 53429
ELEMENT_SET_NO = 999
REV_AT_EPOCH   = 130
BSTAR          = -.40265E-3
MEAN_MOTION_DOT = -.56821E-3
MEAN_MOTION_DDOT = 0

CCSDS_OMM_VERS = 2.0
CREATION_DATE  = 
ORIGINATOR     = 

OBJECT_NAME    = STARLINK-4538
OBJECT_ID      = 2022-097AU
CENTER_NAME    = EARTH
REF_FRAME      = TEME
TIME_SYSTEM    = UTC
MEAN_ELEMENT_THEORY = SGP/SGP4

EPOCH          = 2022-08-29T22:00:00.999936
MEAN_MOTION    = 15.73258379
ECCENTRICITY   = .0000841
INCLINATION    = 53.2204
RA_OF_ASC_NODE = 150.4212
ARG_OF_PERICENTER = 82.5373
MEAN_ANOMALY   = 99.9300

EPHEMERIS_TYPE = 0
CLASSIFICATION_TYPE = U
NORAD_CAT_ID   = 53430
ELEMENT_SET_NO = 999
REV_AT_EPOCH   = 130
BSTAR          = -.60939E-3
MEAN_MOTION_DOT = -.85487E-3
MEAN_MOTION_DDOT = 0

CCSDS_OMM_VERS = 2.0
CREATION_DATE  = 
ORIGINATOR     = 

OBJECT_NAME    = STARLINK-4548
OBJECT_ID      = 2022-097AV
CENTER_NAME    = EARTH
REF_FRAME      = TEME
TIME_SYSTEM    = UTC
MEAN_ELEMENT_THEORY = SGP/SGP4

EPOCH          = 2022-08-29T22:00:00.999936
MEAN_MOTION    = 15.73225064
ECCENTRICITY   = .0001398
INCLINATION    = 53.2198
RA_OF_ASC_NODE = 150.4242
ARG_OF_PERICENTER = 75.9624
MEAN_ANOMALY   = 104.7207

EPHEMERIS_TYPE = 0
CLASSIFICATION_TYPE = U
NORAD_CAT_ID   = 53431
ELEMENT_SET_NO = 999
REV_AT_EPOCH   = 130
BSTAR          = -.36481E-3
MEAN_MOTION_DOT = -.51561E-3
MEAN_MOTION_DDOT = 0

CCSDS_OMM_VERS = 2.0
CREATION_DATE  = 
ORIGINATOR     = 

OBJECT_NAME    = STARLINK-4557
OBJECT_ID      = 2022-097AW
CENTER_NAME    = EARTH
REF_FRAME      = TEME
TIME_SYSTEM    = UTC
MEAN_ELEMENT_THEORY = SGP/SGP4

EPOCH          = 2022-08-29T22:00:00.999936
MEAN_MOTION    = 15.73216974
ECCENTRICITY   = .0000951
INCLINATION    = 53.2202
RA_OF_ASC_NODE = 150.4187
ARG_OF_PERICENTER = 79.1961
MEAN_ANOMALY   = 105.0801

EPHEMERIS_TYPE = 0
CLASSIFICATION_TYPE = U
NORAD_CAT_ID   = 53432
ELEMENT_SET_NO = 999
REV_AT_EPOCH   = 130
BSTAR          = .8469E-4
MEAN_MOTION_DOT = .1129E-3
MEAN_MOTION_DDOT = 0

CCSDS_OMM_VERS = 2.0
CREATION_DATE  = 
ORIGINATOR     = 

OBJECT_NAME    = STARLINK-4549
OBJECT_ID      = 2022-097AX
CENTER_NAME    = EARTH
REF_FRAME      = TEME
TIME_SYSTEM    = UTC
MEAN_ELEMENT_THEORY = SGP/SGP4

EPOCH          = 2022-08-30T06:00:00.999648
MEAN_MOTION    = 15.73161572
ECCENTRICITY   = .0000807
INCLINATION    = 53.2191
RA_OF_ASC_NODE = 148.7706
ARG_OF_PERICENTER = 60.0005
MEAN_ANOMALY   = 212.0285

EPHEMERIS_TYPE = 0
CLASSIFICATION_TYPE = U
NORAD_CAT_ID   = 53433
ELEMENT_SET_NO = 999
REV_AT_EPOCH   = 358
BSTAR          = .42439E-3
MEAN_MOTION_DOT = .59262E-3
MEAN_MOTION_DDOT = 0

